BEIJING 1               
1 28890U 05043A   24198.17016182  .00000674  00000+0  14262-3 0  9993
2 28890  98.2034 320.8220 0013997 319.4148  40.6009 14.62394225998138
HUANJING 1A (HJ-1A)     
1 33320U 08041A   24198.16720656  .00002663  00000+0  35664-3 0  9994
2 33320  97.6309 203.7506 0018569 277.0900  82.8201 14.80103890854646
HUANJING 1B (HJ-1B)     
1 33321U 08041B   24198.23329350  .00001847  00000+0  24580-3 0  9997
2 33321  97.6261 208.3457 0037239 323.1171  36.7481 14.80370955854677
YAOGAN-4                
1 33446U 08061A   24198.09781423  .00001822  00000+0  24775-3 0  9993
2 33446  97.8788 129.4318 0014733 185.3904 174.7152 14.79934086841837
DEIMOS-1                
1 35681U 09041A   24198.12648995  .00001097  00000+0  17648-3 0  9990
2 35681  97.6810  18.4988 0000571  16.4339 343.6888 14.73395643803571
UK-DMC 2                
1 35683U 09041C   24198.20191918  .00001638  00000+0  25987-3 0  9995
2 35683  97.7847 344.6590 0001393  83.1024 277.0343 14.73420447803287
DMC3-FM1                
1 40715U 15032A   24198.23075970  .00001236  00000+0  15558-3 0  9993
2 40715  97.7466  76.2909 0005411 182.6824 177.4363 14.83762007485885
DMC3-FM2                
1 40716U 15032B   24198.18605326  .00001245  00000+0  15667-3 0  9993
2 40716  97.7519  77.3364 0007150 191.7281 168.3768 14.83768711485877
DMC3-FM3                
1 40717U 15032C   24198.21237802  .00001196  00000+0  15104-3 0  9999
2 40717  97.7568  78.6515 0008665 190.4889 169.6146 14.83676765485888
